SL-14 R/B               
1 16496U 86006B   26119.73420302  .00000746  00000+0  76090-4 0  9998
2 16496  82.5292 211.7007 0077942 103.3021 257.6902 14.86896942156799
COSMOS 1743             
1 16719U 86034A   26119.74008932  .00043467  00000+0  47708-3 0  9999
2 16719  82.5325  20.0762 0007340  95.3271 264.8825 15.62996621188211
SL-14 R/B               
1 16792U 86046B   26119.86157442  .00000482  00000+0  52599-4 0  9992
2 16792  82.4848  31.8334 0024485  60.7354 299.6305 14.85638070134005
SL-14 R/B               
1 16882U 86055B   26119.33507014  .00000500  00000+0  54648-4 0  9996
2 16882  82.5192  79.0542 0019347 160.0550   0.1182 14.85685892126885
AJISAI (EGS)            
1 16908U 86061A   26119.89310553 -.00000083  00000+0  10417-3 0  9995
2 16908  50.0095 295.8996 0011439  58.2053 110.1778 12.44516089474374
SL-14 R/B               
1 17567U 87024B   26119.87638765  .00000489  00000+0  52716-4 0  9991
2 17567  82.5304  44.6511 0019830  91.0649 269.2840 14.86178990 95739
COSMOS 1833             
1 17589U 87027A   26119.68762682 -.00000172  00000+0 -66036-4 0  9994
2 17589  70.9162 218.8191 0022378 135.2245 225.0687 14.13032714 17522
SL-16 R/B               
1 17590U 87027B   26119.65419009  .00000063  00000+0  55235-4 0  9991
2 17590  71.0021 169.1005 0003858  17.7533 342.3725 14.17172614 22562
SL-14 R/B               
1 17912U 87038B   26119.76283072  .00000478  00000+0  52500-4 0  9994
2 17912  82.5009 248.6808 0019139   0.4309 359.6920 14.85413716 86818
COSMOS 1844             
1 17973U 87041A   26119.73875366 -.00000268  00000+0 -11369-3 0  9991
2 17973  70.8980 286.4991 0032826 303.3483  56.4497 14.14558731 10808
SL-14 R/B               
1 18153U 87055B   26119.86549624  .00000498  00000+0  54545-4 0  9993
2 18153  82.4966 300.7890 0020066 200.4772 159.5642 14.85672708 77530
COSMOS 1867             
1 18187U 87060A   26119.50992568 -.00000028  00000+0  27153-4 0  9991
2 18187  65.0094 164.3817 0015492 281.1343  78.8000 14.31510226 27214
SL-14 R/B               
1 18749U 88001B   26119.59490822  .00000420  00000+0  45550-4 0  9992
2 18749  82.5119 147.4906 0019564  71.8787 288.4558 14.85573197 49587
COSMOS 1933             
1 18958U 88020A   26119.73736098  .00003204  00000+0  15426-3 0  9990
2 18958  82.5157 200.3982 0004652  41.7431 318.4157 15.18420480 57972
SL-3 R/B                
1 19046U 88032B   26119.87738411  .00005386  00000+0  24779-3 0  9992
2 19046  97.5234 102.9896 0027301  57.8863 302.5016 15.20431227 59881
SL-16 R/B               
1 19120U 88039B   26119.85421758  .00000002  00000+0  23726-4 0  9995
2 19120  71.0148 320.3612 0024056 262.1652  97.6742 14.19624673965642
COSMOS 1953             
1 19210U 88050A   26119.47859404  .00006765  00000+0  23690-3 0  9990
2 19210  82.5045 107.1214 0009076 311.6205  48.4257 15.29269244 45547
