[{"OBJECT_NAME":"SL-14 R/B","OBJECT_ID":"1986-006B","EPOCH":"2026-04-29T17:37:15.140928","MEAN_MOTION":14.86896942,"ECCENTRICITY":0.0077942,"INCLINATION":82.5292,"RA_OF_ASC_NODE":211.7007,"ARG_OF_PERICENTER":103.3021,"MEAN_ANOMALY":257.6902,"EPHEMERIS_TYPE":0,"CLASSIFICATION_TYPE":"U","NORAD_CAT_ID":16496,"ELEMENT_SET_NO":999,"REV_AT_EPOCH":15679,"BSTAR":7.609e-5,"MEAN_MOTION_DOT":7.46e-6,"MEAN_MOTION_DDOT":0},{"OBJECT_NAME":"COSMOS 1743","OBJECT_ID":"1986-034A","EPOCH":"2026-04-29T17:45:43.717248","MEAN_MOTION":15.62996621,"ECCENTRICITY":0.000734,"INCLINATION":82.5325,"RA_OF_ASC_NODE":20.0762,"ARG_OF_PERICENTER":95.3271,"MEAN_ANOMALY":264.8825,"EPHEMERIS_TYPE":0,"CLASSIFICATION_TYPE":"U","NORAD_CAT_ID":16719,"ELEMENT_SET_NO":999,"REV_AT_EPOCH":18821,"BSTAR":0.00047708,"MEAN_MOTION_DOT":0.00043467,"MEAN_MOTION_DDOT":0},{"OBJECT_NAME":"SL-14 R/B","OBJECT_ID":"1986-046B","EPOCH":"2026-04-29T20:40:40.029888","MEAN_MOTION":14.8563807,"ECCENTRICITY":0.0024485,"INCLINATION":82.4848,"RA_OF_ASC_NODE":31.8334,"ARG_OF_PERICENTER":60.7354,"MEAN_ANOMALY":299.6305,"EPHEMERIS_TYPE":0,"CLASSIFICATION_TYPE":"U","NORAD_CAT_ID":16792,"ELEMENT_SET_NO":999,"REV_AT_EPOCH":13400,"BSTAR":5.2599e-5,"MEAN_MOTION_DOT":4.82e-6,"MEAN_MOTION_DDOT":0},{"OBJECT_NAME":"SL-14 R/B","OBJECT_ID":"1986-055B","EPOCH":"2026-04-29T08:02:30.060096","MEAN_MOTION":14.85685892,"ECCENTRICITY":0.00193471,"INCLINATION":82.5192,"RA_OF_ASC_NODE":79.0542,"ARG_OF_PERICENTER":160.055,"MEAN_ANOMALY":0.1182,"EPHEMERIS_TYPE":0,"CLASSIFICATION_TYPE":"U","NORAD_CAT_ID":16882,"ELEMENT_SET_NO":999,"REV_AT_EPOCH":12688,"BSTAR":5.4647878e-5,"MEAN_MOTION_DOT":5.0e-6,"MEAN_MOTION_DDOT":0},{"OBJECT_NAME":"AJISAI (EGS)","OBJECT_ID":"1986-061A","EPOCH":"2026-04-29T21:26:04.317792","MEAN_MOTION":12.44516089,"ECCENTRICITY":0.0011439,"INCLINATION":50.0095,"RA_OF_ASC_NODE":295.8996,"ARG_OF_PERICENTER":58.2053,"MEAN_ANOMALY":110.1778,"EPHEMERIS_TYPE":0,"CLASSIFICATION_TYPE":"U","NORAD_CAT_ID":16908,"ELEMENT_SET_NO":999,"REV_AT_EPOCH":47437,"BSTAR":0.00010417,"MEAN_MOTION_DOT":-8.3e-7,"MEAN_MOTION_DDOT":0},{"OBJECT_NAME":"SL-14 R/B","OBJECT_ID":"1987-024B","EPOCH":"2026-04-29T21:01:59.892960","MEAN_MOTION":14.8617899,"ECCENTRICITY":0.001983,"INCLINATION":82.5304,"RA_OF_ASC_NODE":44.6511,"ARG_OF_PERICENTER":91.0649,"MEAN_ANOMALY":269.284,"EPHEMERIS_TYPE":0,"CLASSIFICATION_TYPE":"U","NORAD_CAT_ID":17567,"ELEMENT_SET_NO":999,"REV_AT_EPOCH":9573,"BSTAR":5.2716e-5,"MEAN_MOTION_DOT":4.89e-6,"MEAN_MOTION_DDOT":0},{"OBJECT_NAME":"COSMOS 1833","OBJECT_ID":"1987-027A","EPOCH":"2026-04-29T16:30:10.957248","MEAN_MOTION":14.13032714,"ECCENTRICITY":0.0022378,"INCLINATION":70.9162,"RA_OF_ASC_NODE":218.8191,"ARG_OF_PERICENTER":135.2245,"MEAN_ANOMALY":225.0687,"EPHEMERIS_TYPE":0,"CLASSIFICATION_TYPE":"U","NORAD_CAT_ID":17589,"ELEMENT_SET_NO":999,"REV_AT_EPOCH":1752,"BSTAR":-6.6036e-5,"MEAN_MOTION_DOT":-1.72e-6,"MEAN_MOTION_DDOT":0},{"OBJECT_NAME":"SL-16 R/B","OBJECT_ID":"1987-027B","EPOCH":"2026-04-29T15:42:02.023776","MEAN_MOTION":14.17172614,"ECCENTRICITY":0.0003858,"INCLINATION":71.0021,"RA_OF_ASC_NODE":169.1005,"ARG_OF_PERICENTER":17.7533,"MEAN_ANOMALY":342.3725,"EPHEMERIS_TYPE":0,"CLASSIFICATION_TYPE":"U","NORAD_CAT_ID":17590,"ELEMENT_SET_NO":999,"REV_AT_EPOCH":2256,"BSTAR":5.5235e-5,"MEAN_MOTION_DOT":6.3e-7,"MEAN_MOTION_DDOT":0},{"OBJECT_NAME":"SL-14 R/B","OBJECT_ID":"1987-038B","EPOCH":"2026-04-29T18:18:28.574208","MEAN_MOTION":14.85413716,"ECCENTRICITY":0.0019139,"INCLINATION":82.5009,"RA_OF_ASC_NODE":248.6808,"ARG_OF_PERICENTER":0.4309,"MEAN_ANOMALY":359.692,"EPHEMERIS_TYPE":0,"CLASSIFICATION_TYPE":"U","NORAD_CAT_ID":17912,"ELEMENT_SET_NO":999,"REV_AT_EPOCH":8681,"BSTAR":5.25e-5,"MEAN_MOTION_DOT":4.78e-6,"MEAN_MOTION_DDOT":0},{"OBJECT_NAME":"COSMOS 1844","OBJECT_ID":"1987-041A","EPOCH":"2026-04-29T17:43:48.316224","MEAN_MOTION":14.14558731,"ECCENTRICITY":0.0032826,"INCLINATION":70.898,"RA_OF_ASC_NODE":286.4991,"ARG_OF_PERICENTER":303.3483,"MEAN_ANOMALY":56.4497,"EPHEMERIS_TYPE":0,"CLASSIFICATION_TYPE":"U","NORAD_CAT_ID":17973,"ELEMENT_SET_NO":999,"REV_AT_EPOCH":1080,"BSTAR":-0.00011369,"MEAN_MOTION_DOT":-2.68e-6,"MEAN_MOTION_DDOT":0},{"OBJECT_NAME":"SL-14 R/B","OBJECT_ID":"1987-055B","EPOCH":"2026-04-29T20:46:18.875136","MEAN_MOTION":14.85672708,"ECCENTRICITY":0.0020066,"INCLINATION":82.4966,"RA_OF_ASC_NODE":300.789,"ARG_OF_PERICENTER":200.4772,"MEAN_ANOMALY":159.5642,"EPHEMERIS_TYPE":0,"CLASSIFICATION_TYPE":"U","NORAD_CAT_ID":18153,"ELEMENT_SET_NO":999,"REV_AT_EPOCH":7753,"BSTAR":5.4545e-5,"MEAN_MOTION_DOT":4.98e-6,"MEAN_MOTION_DDOT":0},{"OBJECT_NAME":"COSMOS 1867","OBJECT_ID":"1987-060A","EPOCH":"2026-04-29T12:14:17.578752","MEAN_MOTION":14.31510226,"ECCENTRICITY":0.00154921,"INCLINATION":65.0094,"RA_OF_ASC_NODE":164.3817,"ARG_OF_PERICENTER":281.1343,"MEAN_ANOMALY":78.8,"EPHEMERIS_TYPE":0,"CLASSIFICATION_TYPE":"U","NORAD_CAT_ID":18187,"ELEMENT_SET_NO":999,"REV_AT_EPOCH":2721,"BSTAR":2.715269e-5,"MEAN_MOTION_DOT":-2.8e-7,"MEAN_MOTION_DDOT":0},{"OBJECT_NAME":"SL-14 R/B","OBJECT_ID":"1988-001B","EPOCH":"2026-04-29T14:16:40.070208","MEAN_MOTION":14.85573197,"ECCENTRICITY":0.0019564,"INCLINATION":82.5119,"RA_OF_ASC_NODE":147.4906,"ARG_OF_PERICENTER":71.8787,"MEAN_ANOMALY":288.4558,"EPHEMERIS_TYPE":0,"CLASSIFICATION_TYPE":"U","NORAD_CAT_ID":18749,"ELEMENT_SET_NO":999,"REV_AT_EPOCH":4958,"BSTAR":4.555e-5,"MEAN_MOTION_DOT":4.2e-6,"MEAN_MOTION_DDOT":0},{"OBJECT_NAME":"COSMOS 1933","OBJECT_ID":"1988-020A","EPOCH":"2026-04-29T17:41:47.988672","MEAN_MOTION":15.1842048,"ECCENTRICITY":0.0004652,"INCLINATION":82.5157,"RA_OF_ASC_NODE":200.3982,"ARG_OF_PERICENTER":41.7431,"MEAN_ANOMALY":318.4157,"EPHEMERIS_TYPE":0,"CLASSIFICATION_TYPE":"U","NORAD_CAT_ID":18958,"ELEMENT_SET_NO":999,"REV_AT_EPOCH":5797,"BSTAR":0.00015426,"MEAN_MOTION_DOT":3.204e-5,"MEAN_MOTION_DDOT":0},{"OBJECT_NAME":"SL-3 R/B","OBJECT_ID":"1988-032B","EPOCH":"2026-04-29T21:03:25.987104","MEAN_MOTION":15.20431227,"ECCENTRICITY":0.0027301,"INCLINATION":97.5234,"RA_OF_ASC_NODE":102.9896,"ARG_OF_PERICENTER":57.8863,"MEAN_ANOMALY":302.5016,"EPHEMERIS_TYPE":0,"CLASSIFICATION_TYPE":"U","NORAD_CAT_ID":19046,"ELEMENT_SET_NO":999,"REV_AT_EPOCH":5988,"BSTAR":0.00024779,"MEAN_MOTION_DOT":5.386e-5,"MEAN_MOTION_DDOT":0},{"OBJECT_NAME":"SL-16 R/B","OBJECT_ID":"1988-039B","EPOCH":"2026-04-29T20:30:04.398912","MEAN_MOTION":14.19624673,"ECCENTRICITY":0.0024056,"INCLINATION":71.0148,"RA_OF_ASC_NODE":320.3612,"ARG_OF_PERICENTER":262.1652,"MEAN_ANOMALY":97.6742,"EPHEMERIS_TYPE":0,"CLASSIFICATION_TYPE":"U","NORAD_CAT_ID":19120,"ELEMENT_SET_NO":999,"REV_AT_EPOCH":96564,"BSTAR":2.3726e-5,"MEAN_MOTION_DOT":2.0e-8,"MEAN_MOTION_DDOT":0},{"OBJECT_NAME":"COSMOS 1953","OBJECT_ID":"1988-050A","EPOCH":"2026-04-29T11:29:10.525056","MEAN_MOTION":15.29269244,"ECCENTRICITY":0.00090762,"INCLINATION":82.5045,"RA_OF_ASC_NODE":107.1214,"ARG_OF_PERICENTER":311.6205,"MEAN_ANOMALY":48.4257,"EPHEMERIS_TYPE":0,"CLASSIFICATION_TYPE":"U","NORAD_CAT_ID":19210,"ELEMENT_SET_NO":999,"REV_AT_EPOCH":4554,"BSTAR":0.00023690078,"MEAN_MOTION_DOT":6.765e-5,"MEAN_MOTION_DDOT":0}]
